[
    {
        "Altitude(m)": 555601.0565251906,
        "Argument of Periapsis(deg)": 0.033114955553567506,
        "Eccentricity": 0.0,
        "Inclination(deg)": 53.0,
        "Latitude(deg)": 33.25969069881982,
        "Longitude(deg)": -4.546712736156401,
        "Mean Anomaly(deg)": 43.1853643378879,
        "RAAN(deg)": 69.95071684264008,
        "Satellite Name": "Starlink Shell 1 329",
        "Satellite Number": 329,
        "Semi-Major Axis(m)": 6931778.249405717,
        "Time(s)": 950
    },
    {
        "Altitude(m)": 555680.9373488261,
        "Argument of Periapsis(deg)": 0.03346353403307874,
        "Eccentricity": 0.0,
        "Inclination(deg)": 53.0,
        "Latitude(deg)": 33.69619968735905,
        "Longitude(deg)": -4.04762175688036,
        "Mean Anomaly(deg)": 43.81219554144465,
        "RAAN(deg)": 69.9501980725626,
        "Satellite Name": "Starlink Shell 1 329",
        "Satellite Number": 329,
        "Semi-Major Axis(m)": 6931778.249405717,
        "Time(s)": 960
    },
    {
        "Altitude(m)": 555761.4252910131,
        "Argument of Periapsis(deg)": 0.03381211251258998,
        "Eccentricity": 0.0,
        "Inclination(deg)": 53.0,
        "Latitude(deg)": 34.130290396520394,
        "Longitude(deg)": -3.543058889699159,
        "Mean Anomaly(deg)": 44.43902674500132,
        "RAAN(deg)": 69.94967930248512,
        "Satellite Name": "Starlink Shell 1 329",
        "Satellite Number": 329,
        "Semi-Major Axis(m)": 6931778.249405717,
        "Time(s)": 970
    },
    {
        "Altitude(m)": 555842.4647547554,
        "Argument of Periapsis(deg)": 0.034160690992101214,
        "Eccentricity": 0.0,
        "Inclination(deg)": 53.0,
        "Latitude(deg)": 34.56189912703281,
        "Longitude(deg)": -3.032908791887403,
        "Mean Anomaly(deg)": 45.06585794855796,
        "RAAN(deg)": 69.94916053240766,
        "Satellite Name": "Starlink Shell 1 329",
        "Satellite Number": 329,
        "Semi-Major Axis(m)": 6931778.249405717,
        "Time(s)": 980
    },
    {
        "Altitude(m)": 555924.000069682,
        "Argument of Periapsis(deg)": 0.034509269471612446,
        "Eccentricity": 0.0,
        "Inclination(deg)": 53.0,
        "Latitude(deg)": 34.99096070753549,
        "Longitude(deg)": -2.517054687428059,
        "Mean Anomaly(deg)": 45.69268915211473,
        "RAAN(deg)": 69.94864176233018,
        "Satellite Name": "Starlink Shell 1 329",
        "Satellite Number": 329,
        "Semi-Major Axis(m)": 6931778.249405717,
        "Time(s)": 990
    }
]